NORAD_CAT_ID,OBJECT_NAME,OBJECT_TYPE,EPOCH,MEAN_MOTION,ECCENTRICITY,INCLINATION,RA_OF_ASC_NODE,ARG_OF_PERICENTER,MEAN_ANOMALY,BSTAR,MEAN_MOTION_DOT,MEAN_MOTION_DDOT,TLE_LINE0,TLE_LINE1,TLE_LINE2,SEMIMAJOR_AXIS,PERIOD,APOGEE,PERIGEE,DECAYED
52995.0,STARLINK-4296,PAYLOAD,2023-06-15 15:41:37,15.08844714,0.0001078,53.2161,254.4778,84.4594,275.6521,5.7341e-05,6.25e-06,0.0,0 STARLINK-4296,1 52995U 22076K   23166.65390358  .00000625  00000-0  57341-4 0  9991,2 52995  53.2161 254.4778 0001078  84.4594 275.6521 15.08844714 52644,6917.866,95.437,540.477,538.985,0.0
52995.0,STARLINK-4296,PAYLOAD,2023-06-16 12:21:37,15.08851033,0.0001072,53.2156,250.6114,83.8695,276.2419,0.00013614,1.88e-05,0.0,0 STARLINK-4296,1 52995U 22076K   23167.51501611  .00001880  00000-0  13614-3 0  9991,2 52995  53.2156 250.6114 0001072  83.8695 276.2419 15.08851033 52307,6917.847,95.437,540.453,538.97,0.0
52995.0,STARLINK-4296,PAYLOAD,2023-06-16 15:32:23,15.0885379,0.0001046,53.2158,250.0166,88.1485,271.9626,0.00015907,2.246e-05,0.0,0 STARLINK-4296,1 52995U 22076K   23167.64749337  .00002246  00000-0  15907-3 0  9998,2 52995  53.2158 250.0166 0001046  88.1485 271.9626 15.08853790 52793,6917.838,95.437,540.427,538.98,0.0
52995.0,STARLINK-4296,PAYLOAD,2023-06-17 05:50:53,15.08833152,7.74e-05,53.2157,247.3399,93.1887,266.9194,1.2551e-05,-8.8e-07,0.0,0 STARLINK-4296,1 52995U 22076K   23168.24367048 -.00000088  00000-0  12551-4 0  9996,2 52995  53.2157 247.3399 0000774  93.1887 266.9194 15.08833152 52882,6917.901,95.438,540.302,539.231,0.0
52995.0,STARLINK-4296,PAYLOAD,2023-06-17 09:01:39,15.08836373,0.0001161,53.2161,246.7451,108.2999,251.812,2.8592e-05,1.67e-06,0.0,0 STARLINK-4296,1 52995U 22076K   23168.37614812  .00000167  00000-0  28592-4 0  9993,2 52995  53.2161 246.7451 0001161 108.2999 251.8120 15.08836373 52433,6917.891,95.438,540.56,538.953,0.0
52995.0,STARLINK-4296,PAYLOAD,2023-06-17 21:44:44,15.08837922,8.89e-05,53.2152,244.366,90.324,269.7854,1.9471e-05,2.2e-07,0.0,0 STARLINK-4296,1 52995U 22076K   23168.90606800  .00000022  00000-0  19471-4 0  9996,2 52995  53.2152 244.3660 0000889  90.3240 269.7854 15.08837922 52517,6917.887,95.438,540.367,539.137,0.0
52995.0,STARLINK-4296,PAYLOAD,2023-06-18 12:03:12,15.08839815,0.0001175,53.2171,241.6917,95.9984,264.1142,-1.9898e-05,-6.04e-06,0.0,0 STARLINK-4296,1 52995U 22076K   23169.50223046 -.00000604  00000-0 -19898-4 0  9991,2 52995  53.2171 241.6917 0001175  95.9984 264.1142 15.08839815 52600,6917.881,95.438,540.559,538.933,0.0
52995.0,STARLINK-4296,PAYLOAD,2023-06-19 05:32:27,15.08830725,0.000111,53.2164,238.4208,97.0397,263.0721,0.00012116,1.641e-05,0.0,0 STARLINK-4296,1 52995U 22076K   23170.23087501  .00001641  00000-0  12116-3 0  9992,2 52995  53.2164 238.4208 0001110  97.0397 263.0721 15.08830725 53185,6917.909,95.438,540.542,539.006,0.0
52995.0,STARLINK-4296,PAYLOAD,2023-06-19 08:43:13,15.0883774,0.0001102,53.2164,237.8262,95.964,264.1478,7.5223e-05,9.1e-06,0.0,0 STARLINK-4296,1 52995U 22076K   23170.36335267  .00000910  00000-0  75223-4 0  9998,2 52995  53.2164 237.8262 0001102  95.9640 264.1478 15.08837740 52732,6917.887,95.438,540.515,538.99,0.0
52995.0,STARLINK-4296,PAYLOAD,2023-06-19 11:53:59,15.08838053,0.0001069,53.2163,237.2313,95.8115,264.2998,0.00012565,1.712e-05,0.0,0 STARLINK-4296,1 52995U 22076K   23170.49583176  .00001712  00000-0  12565-3 0  9996,2 52995  53.2163 237.2313 0001069  95.8115 264.2998 15.08838053 53221,6917.886,95.438,540.491,539.012,0.0
52995.0,STARLINK-4296,PAYLOAD,2023-06-20 05:23:14,15.08834086,0.0001064,53.216,233.9603,93.3804,266.7309,0.00011982,1.619e-05,0.0,0 STARLINK-4296,1 52995U 22076K   23171.22447685  .00001619  00000-0  11982-3 0  9990,2 52995  53.2160 233.9603 0001064  93.3804 266.7309 15.08834086 53333,6917.898,95.438,540.5,539.027,0.0
52995.0,STARLINK-4296,PAYLOAD,2023-06-20 13:20:10,15.08837398,0.0001027,53.2157,232.4731,92.5156,267.5954,8.7066e-05,1.098e-05,0.0,0 STARLINK-4296,1 52995U 22076K   23171.55567649  .00001098  00000-0  87066-4 0  9997,2 52995  53.2157 232.4731 0001027  92.5156 267.5954 15.08837398 52912,6917.888,95.438,540.464,539.043,0.0
52995.0,STARLINK-4296,PAYLOAD,2023-06-21 11:35:33,15.08848241,0.0001024,53.2156,228.3093,91.5593,268.5517,0.00011093,1.478e-05,0.0,0 STARLINK-4296,1 52995U 22076K   23172.48302828  .00001478  00000-0  11093-3 0  9994,2 52995  53.2156 228.3093 0001024  91.5593 268.5517 15.08848241 53520,6917.855,95.437,540.429,539.012,0.0
52995.0,STARLINK-4296,PAYLOAD,2023-06-21 13:10:56,15.08849524,0.0001006,53.2154,228.0117,91.6292,268.4815,0.00011977,1.619e-05,0.0,0 STARLINK-4296,1 52995U 22076K   23172.54926692  .00001619  00000-0  11977-3 0  9990,2 52995  53.2154 228.0117 0001006  91.6292 268.4815 15.08849524 53063,6917.851,95.437,540.412,539.02,0.0
52995.0,STARLINK-4296,PAYLOAD,2023-06-21 21:07:52,15.08842122,0.0001099,53.2149,226.5231,84.0644,276.0473,3.1218e-05,2.09e-06,0.0,0 STARLINK-4296,1 52995U 22076K   23172.88047294  .00000209  00000-0  31218-4 0  9994,2 52995  53.2149 226.5231 0001099  84.0644 276.0473 15.08842122 53585,6917.874,95.437,540.499,538.979,0.0
52995.0,STARLINK-4296,PAYLOAD,2023-06-23 09:41:44,15.08847217,0.0001083,53.2148,219.684,87.3632,272.7484,5.8713e-05,6.47e-06,0.0,0 STARLINK-4296,1 52995U 22076K   23174.40398844  .00000647  00000-0  58713-4 0  9999,2 52995  53.2148 219.6840 0001083  87.3632 272.7484 15.08847217 53810,6917.858,95.437,540.473,538.974,0.0
52995.0,STARLINK-4296,PAYLOAD,2023-06-24 00:00:13,15.08838632,0.0001059,53.2149,217.0089,83.6574,276.4539,7.8168e-05,9.56e-06,0.0,0 STARLINK-4296,1 52995U 22076K   23175.00015287  .00000956  00000-0  78168-4 0  9992,2 52995  53.2149 217.0089 0001059  83.6574 276.4539 15.08838632 53908,6917.885,95.438,540.482,539.017,0.0
52995.0,STARLINK-4296,PAYLOAD,2023-06-25 03:01:46,15.08836496,0.0001085,53.2146,211.9534,82.8554,277.2561,-2.9711e-06,-3.35e-06,0.0,0 STARLINK-4296,1 52995U 22076K   23176.12623818 -.00000335  00000-0 -29711-5 0  9995,2 52995  53.2146 211.9534 0001085  82.8554 277.2561 15.08836496 54070,6917.891,95.438,540.507,539.006,0.0
52995.0,STARLINK-4296,PAYLOAD,2023-06-26 09:14:06,15.0883732,0.0001075,53.2147,206.3046,85.5677,274.5437,5.7992e-05,6.35e-06,0.0,0 STARLINK-4296,1 52995U 22076K   23177.38479741  .00000635  00000-0  57992-4 0  9990,2 52995  53.2147 206.3046 0001075  85.5677 274.5437 15.08837320 54262,6917.889,95.438,540.497,539.01,0.0
52995.0,STARLINK-4296,PAYLOAD,2023-06-28 02:34:08,15.0883781,0.0001045,53.2149,198.5727,88.5099,271.6013,5.3724e-05,5.67e-06,0.0,0 STARLINK-4296,1 52995U 22076K   23179.10704064  .00000567  00000-0  53724-4 0  9994,2 52995  53.2149 198.5727 0001045  88.5099 271.6013 15.08837810 54521,6917.887,95.438,540.475,539.029,0.0
52995.0,STARLINK-4296,PAYLOAD,2023-06-29 10:21:51,15.08835881,0.0001062,53.2149,192.6237,87.722,272.3894,3.1012e-05,2.06e-06,0.0,0 STARLINK-4296,1 52995U 22076K   23180.43184432  .00000206  00000-0  31012-4 0  9999,2 52995  53.2149 192.6237 0001062  87.7220 272.3894 15.08835881 54721,6917.893,95.438,540.493,539.023,0.0
52995.0,STARLINK-4296,PAYLOAD,2023-06-30 22:55:43,15.08836816,0.0001065,53.2148,185.7848,80.7376,279.3736,4.8732e-05,4.88e-06,0.0,0 STARLINK-4296,1 52995U 22076K   23181.95536305  .00000488  00000-0  48732-4 0  9996,2 52995  53.2148 185.7848 0001065  80.7376 279.3736 15.08836816 54955,6917.89,95.438,540.492,539.018,0.0
52995.0,STARLINK-4296,PAYLOAD,2023-07-02 05:08:02,15.08839754,0.0001082,53.2152,180.1355,78.2095,281.9018,1.5403e-05,-4.3e-07,0.0,0 STARLINK-4296,1 52995U 22076K   23183.21392353 -.00000043  00000-0  15403-4 0  9997,2 52995  53.2152 180.1355 0001082  78.2095 281.9018 15.08839754 55149,6917.881,95.438,540.495,538.998,0.0
52995.0,STARLINK-4296,PAYLOAD,2023-07-03 16:06:32,15.08836467,0.0001099,53.2154,173.5934,80.0957,280.0159,2.6804e-05,1.39e-06,0.0,0 STARLINK-4296,1 52995U 22076K   23184.67120736  .00000139  00000-0  26804-4 0  9994,2 52995  53.2154 173.5934 0001099  80.0957 280.0159 15.08836467 55364,6917.891,95.438,540.516,538.996,0.0
52995.0,STARLINK-4296,PAYLOAD,2023-07-04 17:32:42,15.08836663,0.0001124,53.2153,168.8351,84.5186,275.5934,4.6787e-05,4.57e-06,0.0,0 STARLINK-4296,1 52995U 22076K   23185.73104824  .00000457  00000-0  46787-4 0  9997,2 52995  53.2153 168.8351 0001124  84.5186 275.5934 15.08836663 55521,6917.891,95.438,540.533,538.978,0.0
52995.0,STARLINK-4296,PAYLOAD,2023-07-06 07:41:57,15.08839919,0.000115,53.2153,161.6982,87.51,272.6024,3.6825e-05,2.98e-06,0.0,0 STARLINK-4296,1 52995U 22076K   23187.32080883  .00000298  00000-0  36825-4 0  9997,2 52995  53.2153 161.6982 0001150  87.5100 272.6024 15.08839919 55761,6917.881,95.438,540.541,538.95,0.0
52995.0,STARLINK-4296,PAYLOAD,2023-07-07 15:29:40,15.0883241,0.0001232,53.2153,155.7503,90.3509,269.7624,0.00018708,2.69e-05,0.0,0 STARLINK-4296,1 52995U 22076K   23188.64561022  .00002690  00000-0  18708-3 0  9999,2 52995  53.2153 155.7503 0001232  90.3509 269.7624 15.08832410 55964,6917.904,95.438,540.621,538.916,0.0
52995.0,STARLINK-4296,PAYLOAD,2023-07-08 07:23:31,15.08845261,0.0001135,53.2171,152.7782,75.3453,284.7665,0.00011564,1.553e-05,0.0,0 STARLINK-4296,1 52995U 22076K   23189.30800313  .00001553  00000-0  11564-3 0  9992,2 52995  53.2171 152.7782 0001135  75.3453 284.7665 15.08845261 56065,6917.864,95.437,540.514,538.944,0.0
52995.0,STARLINK-4296,PAYLOAD,2023-07-09 04:03:33,15.08835534,0.0001229,53.216,148.9117,89.458,270.6553,-1.719e-05,-5.61e-06,0.0,0 STARLINK-4296,1 52995U 22076K   23190.16913504 -.00000561  00000-0 -17190-4 0  9997,2 52995  53.2160 148.9117 0001229  89.4580 270.6553 15.08835534 56199,6917.894,95.438,540.609,538.909,0.0
52995.0,STARLINK-4296,PAYLOAD,2023-07-10 02:18:56,15.08840958,0.0001225,53.2163,144.7483,91.8436,268.2697,4.2802e-05,3.93e-06,0.0,0 STARLINK-4296,1 52995U 22076K   23191.09649123  .00000393  00000-0  42802-4 0  9992,2 52995  53.2163 144.7483 0001225  91.8436 268.2697 15.08840958 56339,6917.877,95.437,540.59,538.895,0.0
